{
    "links": {
        "self": "http://www.neowsapp.com/rest/v1/neo/3407942?api_key=iIulBulltgU6a56xZRHN4H3l9WmuAYTsLGpBGhQ2"
    },
    "id": "3407942",
    "neo_reference_id": "3407942",
    "name": "(2008 FK7)",
    "designation": "2008 FK7",
    "nasa_jpl_url": "http://ssd.jpl.nasa.gov/sbdb.cgi?sstr=3407942",
    "absolute_magnitude_h": 23.1,
    "estimated_diameter": {
        "kilometers": {
            "estimated_diameter_min": 0.063760979,
            "estimated_diameter_max": 0.1425738833
        },
        "meters": {
            "estimated_diameter_min": 63.7609789875,
            "estimated_diameter_max": 142.5738833281
        },
        "miles": {
            "estimated_diameter_min": 0.0396192233,
            "estimated_diameter_max": 0.0885912765
        },
        "feet": {
            "estimated_diameter_min": 209.1895703015,
            "estimated_diameter_max": 467.7620993781
        }
    },
    "is_potentially_hazardous_asteroid": false,
    "close_approach_data": [
        {
            "close_approach_date": "2008-05-19",
            "close_approach_date_full": "2008-May-19 13:27",
            "epoch_date_close_approach": 1211203620000,
            "relative_velocity": {
                "kilometers_per_second": "3.6492451518",
                "kilometers_per_hour": "13137.2825464153",
                "miles_per_hour": "8162.9964800212"
            },
            "miss_distance": {
                "astronomical": "0.1423594889",
                "lunar": "55.3778411821",
                "kilometers": "21296676.313728643",
                "miles": "13233141.0324475534"
            },
            "orbiting_body": "Earth"
        },
        {
            "close_approach_date": "2015-10-17",
            "close_approach_date_full": "2015-Oct-17 18:32",
            "epoch_date_close_approach": 1445106720000,
            "relative_velocity": {
                "kilometers_per_second": "10.4068952442",
                "kilometers_per_hour": "37464.8228792129",
                "miles_per_hour": "23279.1839718087"
            },
            "miss_distance": {
                "astronomical": "0.05564642",
                "lunar": "21.64645738",
                "kilometers": "8324585.9051254",
                "miles": "5172657.82211452"
            },
            "orbiting_body": "Mars"
        },
        {
            "close_approach_date": "2021-05-14",
            "close_approach_date_full": "2021-May-14 16:59",
            "epoch_date_close_approach": 1621011540000,
            "relative_velocity": {
                "kilometers_per_second": "6.3658206511",
                "kilometers_per_hour": "22916.9543440373",
                "miles_per_hour": "14239.7042144936"
            },
            "miss_distance": {
                "astronomical": "0.2479022069",
                "lunar": "96.4339584841",
                "kilometers": "37085642.120539303",
                "miles": "23043949.4515682614"
            },
            "orbiting_body": "Earth"
        }
    ],
    "orbital_data": {
        "orbit_id": "14",
        "orbit_determination_date": "2017-04-06 09:03:52",
        "first_observation_date": "2008-03-31",
        "last_observation_date": "2008-05-28",
        "data_arc_in_days": 58,
        "observations_used": 38,
        "orbit_uncertainty": "7",
        "minimum_orbit_intersection": ".134708",
        "jupiter_tisserand_invariant": "3.863",
        "epoch_osculation": "2459000.5",
        "eccentricity": ".3939660515566617",
        "semi_major_axis": "1.888213418129487",
        "inclination": "1.427375954178336",
        "ascending_node_longitude": "346.68902271",
        "orbital_period": "947.7090898721353",
        "perihelion_distance": "1.144321433292705",
        "perihelion_argument": "251.9504801470619",
        "aphelion_distance": "2.632105402966268",
        "perihelion_time": "2459342.676247124621",
        "mean_anomaly": "230.019766317232",
        "mean_motion": ".3798634030708423",
        "equinox": "J2000",
        "orbit_class": {
            "orbit_class_type": "AMO",
            "orbit_class_description": "Near-Earth asteroid orbits similar to that of 1221 Amor",
            "orbit_class_range": "1.017 AU < q (perihelion) < 1.3 AU"
        }
    },
    "is_sentry_object": false
}